TIANMU-1 11             
1 58645U 23205A   24020.78951752  .00005714  00000+0  31904-3 0  9998
2 58645  97.4199  49.7132 0011493 177.3138 182.8157 15.13862424  4050
TIANMU-1 12             
1 58646U 23205B   24020.79264293  .00005980  00000+0  33593-3 0  9998
2 58646  97.4185  49.7039 0010393 173.0651 187.0726 15.13631310  4049
TIANMU-1 13             
1 58647U 23205C   24020.79944164  .00006104  00000+0  34739-3 0  9993
2 58647  97.4216  49.7058 0010836 166.2158 193.9371 15.13151298  4048
TIANMU-1 14             
1 58648U 23205D   24020.72714395  .00005850  00000+0  32878-3 0  9997
2 58648  97.4141  49.6227 0011028 170.8911 189.2523 15.13621376  4030
TANTRUM (TYVAK-1015)    
1 58616U 23202A   24020.35670382  .00553502 -98445-5  64570-3 0  9998
2 58616 140.0137 181.5121 0159962  21.3015 339.4396 15.87166616  4511
STARLINK-31054          
1 58619U 23203B   24020.91667824 -.01496427  00000+0 -60386-1 0  9998
2 58619  43.0001 139.8312 0001072 294.3814 317.1640 15.27057599  5633
STARLINK-31118          
1 58620U 23203C   24020.91667824 -.01993929  00000+0 -79476-1 0  9999
2 58620  43.0003 139.8036 0001648 276.5663 346.5535 15.27849281  5752
STARLINK-31134          
1 58621U 23203D   24020.91667824  .00053560  00000+0  19428-2 0  9997
2 58621  43.0005 139.6902 0001769 295.3979  14.2050 15.27562179  5690
STARLINK-31133          
1 58622U 23203E   24020.91667824 -.01369487  00000+0 -54018-1 0  9992
2 58622  43.0003 139.7755 0001900 270.1750   4.4714 15.28020946  4511
STARLINK-31068          
1 58623U 23203F   24020.58334491 -.00019272  00000+0 -69268-3 0  9995
2 58623  43.0001 141.6317 0001978 261.3419 349.7430 15.27576304  5643
STARLINK-31129          
1 58624U 23203G   24020.91667824 -.00190245  00000+0 -70639-2 0  9995
2 58624  43.0004 139.7191 0001850 255.8438  42.0660 15.27666133  5696
STARLINK-30774          
1 58625U 23203H   24020.91667824 -.00143859  00000+0 -52994-2 0  9999
2 58625  43.0006 139.6338 0002138 261.2340  71.4177 15.27706725  5752
STARLINK-31086          
1 58626U 23203J   24020.91667824 -.00150545  00000+0 -39894-2 0  9994
2 58626  43.0004 139.4336 0002121 290.2353 126.0428 15.38152279  5752
STARLINK-31065          
1 58627U 23203K   24020.91667824  .00050422  00000+0  13951-2 0  9992
2 58627  43.0003 139.4470 0001129 267.0164 143.2430 15.36244416  5645
STARLINK-31092          
1 58628U 23203L   24020.91667824  .00081881  00000+0  29566-2 0  9995
2 58628  43.0004 139.6058 0001581 272.3645  71.8800 15.27530362  5696
STARLINK-31091          
1 58629U 23203M   24020.91667824  .00073402  00000+0  26530-2 0  9994
2 58629  43.0006 139.5493 0001543 279.6290  87.7842 15.27548653  5587
STARLINK-31084          
1 58630U 23203N   24020.91667824  .00083572  00000+0  30116-2 0  9990
2 58630  43.0005 139.5212 0001525 290.6213  88.3648 15.27587033  5750
STARLINK-31064          
1 58631U 23203P   24020.58334491 -.00008380  00000+0 -29547-3 0  9998
2 58631  43.0001 141.3482 0001405 260.4169 106.6584 15.27564673  5645
STARLINK-31081          
1 58632U 23203Q   24020.91667824  .00029635  00000+0  10830-2 0  9993
2 58632  43.0000 139.4366 0001940 279.7923 134.0956 15.27552664  5701
STARLINK-31022          
1 58633U 23203R   24020.91667824 -.00032343  00000+0 -11704-2 0  9997
2 58633  43.0004 139.4926 0001667 268.7169 121.9901 15.27594110  5745
STARLINK-31025          
1 58634U 23203S   24020.58334491  .00043179  00000+0  78330-3 0  9998
2 58634  42.9995 139.5282 0001405 284.8253 100.3355 15.48881993  5781
STARLINK-31018          
1 58635U 23203T   24020.91667824 -.00070812  00000+0 -27207-2 0  9997
2 58635  42.9995 139.9784 0001149 229.0552 320.9697 15.25941251  5756
STARLINK-31008          
1 58636U 23203U   24020.91667824  .00048803  00000+0  18654-2 0  9997
2 58636  42.9994 140.0084 0001226 308.5968 229.0001 15.25870537  5758
STARLINK-31077          
1 58637U 23203V   24020.58334491 -.01734137  00000+0 -68815-1 0  9990
2 58637  42.9992 141.8335 0000702 267.8377 259.2098 15.28078625  5644
STARLINK-31078          
1 58638U 23203W   24020.91667824  .00075310  00000+0  27225-2 0  9996
2 58638  42.9996 139.9214 0002344 267.7907 306.1777 15.27529863  5757
STARLINK-31070          
1 58639U 23203X   24020.91667824 -.01034575  00000+0 -40525-1 0  9995
2 58639  42.9999 139.8649 0001534 267.1434 330.0224 15.27896627  5759
STARLINK-31090          
1 58640U 23203Y   24018.59720443  .00072199  00000+0  11953-2 0  9990
2 58640  42.9986 152.2500 0000764 198.5725 161.5108 15.51272279  5415
KZ-1A R/B               
1 58649U 23205E   24020.65378057  .00455183  23350-5  89365-3 0  9991
2 58649  97.4058  51.8893 0155369 295.9409  62.5919 15.81941078  4176
SHIYAN 24C 01           
1 58650U 23206A   24020.82141064  .00005318  00000+0  36173-3 0  9990
2 58650  97.3357  28.6310 0011605 175.8167 184.3160 15.06672625  3891
SHIYAN 24C 02           
1 58651U 23206B   24020.82057337  .00004642  00000+0  31651-3 0  9995
2 58651  97.3360  28.6331 0009844 197.0327 163.0572 15.06661193  3894
